0 SL-16 DEB
1 22618U 93016AC  13284.12738992  .00000283  00000-0  27911-3 0  9634
2 22618 070.9919 158.6048 0157380 123.9279 038.1277 13.81283418 34638
0 SL-16 DEB
1 22618U 93016AC  13286.71357727  .00000301  00000-0  29476-3 0  9644
2 22618 070.9914 153.4664 0157352 120.1517 298.3251 13.81285128 34994
0 SL-16 DEB
1 22618U 93016AC  13288.74307816  .00000298  00000-0  29256-3 0  9655
2 22618 070.9910 149.4342 0157284 117.2072 310.3061 13.81286854 35278
0 SL-16 DEB
1 22618U 93016AC  13291.06215576  .00000245  00000-0  24702-3 0  9669
2 22618 070.9908 144.8264 0157231 113.8289 322.2780 13.81288572 35595
0 SL-16 DEB
1 22618U 93016AC  13293.74165140  .00000272  00000-0  27025-3 0  9679
2 22618 070.9910 139.5025 0157238 109.9222 326.5070 13.81289947 35961
0 SL-16 DEB
1 22618U 93016AC  13296.00358663  .00000286  00000-0  28191-3 0  9686
2 22618 070.9910 135.0084 0157229 106.6335 054.3504 13.81291177 36277
